[{"OBJECT_NAME":"SUPERVIEW NEO-1 02","OBJECT_ID":"2022-043C","EPOCH":"2026-03-09T23:18:16.407072","MEAN_MOTION":15.15488211,"ECCENTRICITY":0.00011754,"INCLINATION":97.3469,"RA_OF_ASC_NODE":144.9918,"ARG_OF_PERICENTER":5.9221,"MEAN_ANOMALY":354.2026,"EPHEMERIS_TYPE":0,"CLASSIFICATION_TYPE":"U","NORAD_CAT_ID":52322,"ELEMENT_SET_NO":999,"REV_AT_EPOCH":21454,"BSTAR":0.00034150894,"MEAN_MOTION_DOT":6.402e-5,"MEAN_MOTION_DDOT":0},{"OBJECT_NAME":"ONEWEB-0618","OBJECT_ID":"2023-004V","EPOCH":"2026-03-09T21:27:12.326688","MEAN_MOTION":15.11974897,"ECCENTRICITY":0.00107842,"INCLINATION":86.9069,"RA_OF_ASC_NODE":217.8931,"ARG_OF_PERICENTER":307.7231,"MEAN_ANOMALY":52.303,"EPHEMERIS_TYPE":0,"CLASSIFICATION_TYPE":"U","NORAD_CAT_ID":55159,"ELEMENT_SET_NO":999,"REV_AT_EPOCH":16725,"BSTAR":0.00049587895,"MEAN_MOTION_DOT":8.547e-5,"MEAN_MOTION_DDOT":0}]
